#dP2022 11 11  6  0  0.00000000      96 __u+U ITR00 EXT  IAC
## 2235 453600.00000000   900.00000000 59894 0.2500000000000
+  115   C06C07C08C09C10C11C12C13C14C16C19C20C21C22C23C24C25
+        C26C27C28C29C30C32C33C34C35C36C37C38C39C40C41C42C43
+        C44C45C46E01E02E03E04E05E08E09E10E11E12E13E14E15E18
+        E19E21E24E25E26E27E30E31E33E34E36G01G03G04G05G06G07
+        G08G09G10G11G12G13G14G15G16G17G18G19G20G21G22G23G24
+        G25G26G27G29G30G31G32J02J03J04R01R02R03R04R05R07R08
+        R09R11R12R13R14R15R17R18R19R20R21R22R24  0  0  0  0
++         8 10  9  9 11  8  9  9  8  9  9  9  9  9  8  8  8
++         9 10  9  9 10  7 10  8  8  9  9  9  9 11 10 10  8
++         8 10  9  8  8  8  9  8  8  8  8 12 12 10  9 10  8
++         9  9  8  9 10  9  9  9  8  9  8  8  7  7  9  7  9
++         8  8  7  8  8  8  8  8  8  8  8  8  8  8  8  8  9
++         8  8  8  8  8  8  8 11  9 10 10  8  9  8  9  8  9
++        10  8  8 10  9  9  9  9 10  9  9  9  9  0  0  0  0
%c M  cc GPS ccc cccc cccc cccc cccc ccccc ccccc ccccc ccccc
%c cc cc ccc ccc cccc cccc cccc cccc ccccc ccccc ccccc ccccc
%f  0.0000000  0.000000000  0.00000000000  0.000000000000000
%f  0.0000000  0.000000000  0.00000000000  0.000000000000000
%i    0    0    0    0      0      0      0      0         0
%i    0    0    0    0      0      0      0      0         0
/* IAC                                ULTRA-RAPID PREDICTION
/* S/V CLOCKS ARE ALIGNED TO GNSS TIME                      
/* G:C1WC2W R:C1PC2P E:C1XC5X C:C2IC6I J:C1CC2S             
/* PCV:IGS14_2233 OL/AL:FES2004  NONE     YN ORB:CoN CLK:CoN
*  2022 11 12  2 30  0.00000000
PC06  -5681.135174  40298.762644  11496.945291      2.976498
PC07  -7537.058106  26062.415159 -32230.346120    226.703672
PC08 -20332.501230  29786.338139  21689.963492    510.413285
PC09   -972.740320  42371.449709   2647.397098   -809.585221
PC10    980.514411  27925.890479 -31195.122911     69.675669
PC11  -1643.308144  26205.172832  -9327.450909   -297.586747
PC12 -12062.897513  12911.724870 -21548.724801    297.765622
PC13 -10825.207398  29788.628624  27794.172894    131.014761
PC14  -2025.650860  15881.990189  22862.527623    645.362224
PC16  -8777.003740  38017.126545  16516.234912    118.077257
PC19  -8997.746763 -17295.691354 -19954.793431   -915.479109
PC20  10691.648970 -12657.600927 -22447.938650    839.898169
PC21 -25413.452565    -22.060667  11552.431327   -802.692963
PC22 -24409.451694 -12228.341964  -5835.217604   -798.759972
PC23  14985.143477   7997.334588 -22139.266648   -878.570129
PC24 -18598.010706  20392.544457  -4020.590508   -819.383904
PC25  -1042.893746  20021.182546 -19410.463402     23.343063
PC26 -23192.898583  10229.639007  11614.431971    -34.650568
PC27  15536.068809  -3392.061645  22915.929678     50.017524
PC28  15143.562780  16172.275358  16970.044025     34.955444
PC29  -6453.769233 -27151.035647    -90.036936     39.313028
PC30   6857.097209 -21350.095233  16596.851076      0.928069
PC32  25444.835073   -104.708888 -11448.969438   -721.749168
PC33   8948.734378  17266.454470  20006.166854   -913.812879
PC34  -6153.908170  22199.915499 -15768.287627     37.325397
PC35 -15356.900188 -17038.976660 -15877.593480     84.175645
PC36   2144.065652 -20261.774721  19095.534361   -847.980201
PC37  23327.606028  -8609.687347 -12683.128771   -809.920556
PC38 -25005.028366  30706.884398  14242.520249     37.523005
PC39  -9374.249209  35684.765147  20605.848024     -0.837004
PC40 -12449.174013  19416.681022 -35308.274209     -7.913564
PC41  24147.124871  12456.654693   6416.930204   -266.800523
PC42 -11976.239907  12116.893025  22139.929060   -646.946511
PC43   5869.568604  27283.912082   -666.570029     24.512478
PC44 -15596.754305   3787.730223 -22835.612212    111.041116
PC45 -15161.577528  -7616.942105  22150.655700    -21.299182
PC46  17537.070474 -20971.940186   5717.223677    -12.407900
PE01  19979.491426   9751.673712 -19543.088043   -564.303934
PE02 -20140.638229  -9637.619238  19424.252840      2.053953
PE03 -21430.343279 -19979.266475   4233.190997   -619.093315
PE04  21795.150717   3890.908350 -19650.761891  -1156.655094
PE05  -8445.142529 -24668.090875 -14015.837006   -125.523698
PE08 -21717.708003  -3920.417734  19722.296383   -630.885694
PE09   9261.679663 -14720.585071 -23958.674242   -726.019999
PE10  17342.232914 -16483.120058  17433.497646   -490.199259
PE11  14103.965995 -24618.129129   8426.285301   1368.549343
PE12  17759.115835  -6336.937968  22816.811023   -272.235133
PE13 -14410.438678  24129.740473  -9276.101157    430.610323
PE14 -23414.117412 -18731.398330 -11214.594881     54.120293
PE15 -17642.893834   6094.809322 -22962.166619    708.017056
PE18  15798.046065  17526.620669   4809.711794   -753.486250
PE19  20280.558291  21497.316568  -1720.145707  -4020.196883
PE21    781.406619  16791.764021 -24360.696183   -494.125400
PE24  21172.850560 -14404.112656  14860.745984   -942.483487
PE25   -406.563296 -16851.034750  24341.489852   -592.466949
PE26  -2142.326533  27604.682555  10459.555759  -1834.837575
PE27 -20298.021149  14814.232985 -15625.731264   -437.473499
PE30 -29233.167725   3502.761534   2953.353491   -991.304434
PE31  29229.203573  -4150.057945  -2203.396908   -507.962782
PE33  10448.330524  15414.838862  23015.206600   -455.464804
PE34 -10568.296298 -15246.016037 -23071.526586    -14.163128
PE36   2774.564714 -27830.246210  -9690.086969   -459.540154
PG01  13950.063424 -21529.155018   5834.176542    253.134391
PG03  18536.234396 -12129.599121 -14699.999235   -372.219801
PG04   7527.712978 -14663.288091 -20804.822639    -87.995903
PG05 -25775.485995   6015.296296   2706.071335   -103.965702
PG06 -10001.659054 -12116.776274 -21333.103348    515.964999
PG07   4179.446840 -24679.035341   8520.396160    288.471991
PG08  15267.566987  -4562.087845  21260.259588    -93.386157
PG09  -3425.013877 -21720.502064 -14947.772756   -270.002030
PG10  13419.762626  11931.201513  19831.608048    -11.525309
PG11 -16293.650774    105.539194 -20961.118371    -38.397846
PG12 -19698.387652  10776.776259 -14375.422652   -303.204624
PG13 -17594.146707  -4568.001433  19256.126282    422.979922
PG14 -10786.502482 -13571.251537  20160.244662    -84.189188
PG15 -14842.652614   6712.410327  20572.227233    -13.170611
PG16  26747.473985    724.109649  -2040.923515   -526.899619
PG17 -12286.447706 -23299.285407   3519.789823    677.104662
PG18  -3624.985080  24271.934685   9975.781954    -18.732673
PG19 -17384.014227 -18620.517919  -8211.353866    236.167967
PG20 -24369.560779   -750.510348 -10239.644329    470.850075
PG21  16082.265431 -15012.515168  14915.974117    156.229802
PG22  18234.963181  16602.818305  -9670.357837    362.874330
PG23   1223.490600  14952.688900  21906.277700     -1.074258
PG24 -14390.223759  19522.923553   9982.852163     62.699779
PG25  -8732.630172  15366.674892 -20037.028728    391.719297
PG26  23042.676970   5272.077252 -12526.331011    235.508926
PG27  19576.564124   7617.886689  16271.281250    179.936372
PG29    323.134193  21008.481850 -16239.169159   -566.584246
PG30  -4977.230174 -19664.696076  17104.471981   -536.785536
PG31  11691.900931  10764.398444 -21373.438256   -199.903716
PG32  15736.694471  21527.911993    571.291242   -293.301559
PJ02 -34059.386043  18076.748525 -12449.060857     -0.119542
PJ03 -20490.043777  29903.112192 -16908.666621     -4.485050
PJ04 -28208.425953  26991.825499  22055.099083    112.877882
PR01 -21868.582189 -12831.377065  -2829.359714     17.728924
PR02 -20079.444087  -2904.472537  15450.227966    -23.300805
PR03  -6663.323586   8787.319650  23035.610870     67.137466
PR04  10174.891124  15183.871971  17822.423095    164.577487
PR05  21458.580977  13528.372414   2835.611892    102.765616
PR07   6019.813008  -9124.639323 -23016.498677     44.152971
PR08 -10332.681463 -15202.955870 -17618.146807    -68.046483
PR09  22246.728122  -9789.284741  -7598.954330     87.098976
PR11   3107.646395 -13821.170593  21219.720487     21.063262
PR12 -14423.707814  -2835.596453  20866.475092     22.777343
PR13 -22127.003462   8782.915771   9141.637837    -28.781866
PR14 -17152.906178  16203.358659  -9696.944267     24.118856
PR15  -2205.251309  13471.234253 -21528.626809     92.778420
PR17  -5683.866939  21012.782653 -13245.299173    577.304366
PR18   1572.121898  25298.210793   3083.951416     51.556863
PR19   7172.922790  17654.422488  16956.173979   -210.639576
PR20  10310.123752  -3612.710611  23060.119838    -81.996900
PR21   5126.801594 -22006.759385  11874.707642   -349.000406
PR22   -987.450908 -25204.127176  -3743.942973     15.738911
PR24 -10601.275370   4663.302592 -22702.432352    125.955258
EOF
